IRIDIUM 36 [-]          
1 24967U 97056C   24093.14157177  .00000662  00000+0  21818-3 0  9992
2 24967  86.4024 358.2132 0002202  81.2148 278.9298 14.36707965388875
IRIDIUM 38 [-]          
1 25043U 97069E   24092.82477237  .00000828  00000+0  27196-3 0  9997
2 25043  86.3946  58.7343 0004044  95.9258 264.2400 14.37146217382807
IRIDIUM 42 [-]          
1 25077U 97077A   24092.85713526  .00000755  00000+0  25601-3 0  9998
2 25077  86.3938  64.3532 0002829  95.2329 264.9190 14.35456299377864
IRIDIUM 44 [-]          
1 25078U 97077B   24092.81215670  .00000859  00000+0  27065-3 0  9993
2 25078  86.3966  47.4767 0003772  65.6383 294.5209 14.39284006380220
IRIDIUM 24 [-]          
1 25105U 97082B   24093.20272406  .00000764  00000+0  23111-3 0  9997
2 25105  86.3859 267.0414 0013577  93.8164 266.4588 14.41049368379932
IRIDIUM 51 [-]          
1 25262U 98018A   24092.96510126  .00021637  00000+0  10526-2 0  9994
2 25262  86.3885 268.0068 0153392 103.3014 258.5380 15.08404160380137
